0 COSMOS 839 DEB
1 10617U 76067AR  13280.29399578 -.00000085  00000-0 -85462-4 0  8967
2 10617 065.6342 171.8620 0743888 338.7067 104.7983 12.36254171681076
0 COSMOS 839 DEB
1 10617U 76067AR  13282.31837078 -.00000063  00000-0 -17403-4 0  8971
2 10617 065.6341 167.8859 0743976 337.9887 114.3031 12.36253806681326
0 COSMOS 839 DEB
1 10617U 76067AR  13283.75309200  .00000029  00000-0  88093-4 0  8996
2 10617 065.6348 165.0710 0743823 337.4599 019.5626 12.36253850681500
0 COSMOS 839 DEB
1 10617U 76067AR  13286.84261154  .00000002  00000-0  17811-3 0  8994
2 10617 065.6333 158.9998 0744171 336.3839 089.4870 12.36253536681884
0 COSMOS 839 DEB
1 10617U 76067AR  13289.19148391 -.00000031  00000-0  79603-4 0  9006
2 10617 065.6328 154.3862 0744242 335.5525 103.1644 12.36254069682178
0 COSMOS 839 DEB
1 10617U 76067AR  13290.62918340  .00000037  00000-0  11072-3 0  9027
2 10617 065.6338 151.5650 0744077 335.0269 021.6789 12.36254107682356
0 COSMOS 839 DEB
1 10617U 76067AR  13292.18533663 -.00000074  00000-0 -50772-4 0  9014
2 10617 065.6325 148.5055 0744335 334.4906 107.3404 12.36254489682545
0 COSMOS 839 DEB
1 10617U 76067AR  13294.20894804 -.00000056  00000-0  37648-5 0  9024
2 10617 065.6325 144.5304 0744417 333.7733 113.4501 12.36254234682790
